#dP2020  5 21  0  0  0.00000000      97 __u+U IGS14 FIT  IAC
## 2106 345600.00000000   900.00000000 58990 0.0000000000000
+  123   C01C02C03C04C05C06C07C08C09C10C11C12C13C14C16C19C20
+        C21C22C23C24C25C26C27C28C29C30C32C33C34C35C36C37C38
+        C39C40C43C44C45C46E01E02E03E04E05E07E08E09E11E12E13
+        E14E15E18E19E21E24E25E26E27E30E31E33E36G01G02G03G04
+        G05G06G07G08G09G10G11G12G13G14G15G16G17G18G19G20G21
+        G22G23G24G25G26G27G28G29G30G31G32J01J02J03J07R01R02
+        R03R04R05R07R08R09R11R12R13R14R15R16R17R18R19R20R21
+        R22R23R24R26  0  0  0  0  0  0  0  0  0  0  0  0  0
++         0  0  0  0  0  0  0  0  0  0  0  0  0  0  0  0  0
++         0  0  0  0  0  0  0  0  0  0  0  0  0  0  0  0  0
++         0  0  0  0  0  0  0  0  0  0  0  0  0  0  0  0  0
++         0  0  0  0  0  0  0  0  0  0  0  0  0  0  0  0  0
++         0  0  0  0  0  0  0  0  0  0  0  0  0  0  0  0  0
++         0  0  0  0  0  0  0  0  0  0  0  0  0  0  0  0  0
++         0  0  0  0  0  0  0  0  0  0  0  0  0  0  0  0  0
++         0  0  0  0  0  0  0  0  0  0  0  0  0  0  0  0  0
%c M  cc GPS ccc cccc cccc cccc cccc ccccc ccccc ccccc ccccc
%c cc cc ccc ccc cccc cccc cccc cccc ccccc ccccc ccccc ccccc
%f  1.2500000  1.025000000  0.00000000000  0.000000000000000
%f  0.0000000  0.000000000  0.00000000000  0.000000000000000
%i    0    0    0    0      0      0      0      0         0
%i    0    0    0    0      0      0      0      0         0
/* INFORMATION & ANALYSIS CENTER (IAC)            FINAL DATA
/* S/V CLOCKS ARE ALIGNED TO GNSS TIME                      
/* G:C1WC2W R:C1PC2P E:C1XC5X C:C2IC6I J:C1CC2S             
/* PCV:IGS14_2101 OL/AL:FES2004  NONE     YN ORB:CoN CLK:CoN
*  2020 05 21 14 15  0.00000000
PC01 -34343.803893  24415.172217   -672.678235 999999.999999
PC02   4374.607818  41926.394234   1356.075773    335.819912
PC03 -14865.594784  39476.934060    655.653374    779.483309
PC04 -39623.292492  14417.982005   -293.483116   -207.538442
PC05  21884.409725  36049.977772   1040.513470   -319.895304
PC06 -12265.653117  36978.588341  17061.455154    736.226041
PC07 -14430.880343  22007.306064 -32782.871884    -50.605331
PC08 -25801.699097  28114.864129  17666.879825   -265.106927
PC09  -2295.079935  42311.887794    820.593005    555.683983
PC10   2643.949737  28229.376197 -30930.961756   -283.840483
PC11   9629.559606 -25952.796355   3776.407746   -378.548632
PC12  16203.005840 -12371.028444  19095.117772    378.734156
PC13 -11863.853050  29139.456969  28035.861625    447.774821
PC14   3822.502881 -17256.026102 -21573.906442    433.389722
PC16  -9346.006578  38727.757325  14170.439867   -638.137251
PC19   5317.546478  21477.827159  17025.261324    419.317093
PC20 -11690.759388  10874.119334  22911.756438   -870.729120
PC21  22319.159755   6634.740142 -15337.008286   -428.047419
PC22  19563.867076  19845.429180   1074.970977   -801.780595
PC23 -16052.986996 -10526.860124  20260.468963   -870.731947
PC24  22287.260262 -13490.813081  10019.631423   -815.163837
PC25   3541.270943 -17153.333097  21724.800519   -624.578201
PC26  26938.165747  -3239.531863  -6596.978791    688.741587
PC27 -16530.888084   1729.517056 -22437.384029    333.835835
PC28  -8923.255338 -18070.268049 -19304.311824   -228.051919
PC29  -2817.066681  27328.254175   4905.545252    231.534886
PC30 -13782.101636  20722.204701 -12653.361012    320.208156
PC32 -22396.284015  -6427.942430  15388.301783   -889.420792
PC33  -5417.389955 -21460.633998 -16994.873987   -831.501077
PC34  13677.118608 -20994.623424  12248.483711   -738.901043
PC35   9470.324896  17949.192601  19166.451736   -834.361066
PC36  -4205.014791  17075.917384 -21645.267811   -832.869066
PC37 -26869.414933   2136.924661   7228.983055   -843.845605
PC38      0.000000      0.000000      0.000000 999999.999999
PC39  -4609.987782  40387.848322  11393.267054     16.230966
PC40  -2055.816669  23678.461100 -34792.943165     45.363963
PC43   3135.687392 -27325.045779  -4643.505386   -203.464193
PC44  16540.678828  -1972.400326  22377.343805   -232.824969
PC45  16043.321659  10374.383596 -20339.504711    136.973040
PC46 -21907.331040  13714.499609 -10481.013989    824.358530
PE01  15591.288825  15786.206488 -19594.512874   -861.140407
PE02 -15677.011961 -15760.707061  19537.065232    134.878181
PE03 -12522.376839 -26641.731317   3182.703209   -301.110185
PE04  19088.422488  12200.929734 -19037.697029   -529.858788
PE05   1480.570444 -25622.686179 -14740.721331   -378.366149
PE07 -14525.263100   9640.678559  23933.650556   -384.843054
PE08 -19084.986464 -11903.858774  19257.970789   6175.130002
PE09  14256.845743  -9810.221572 -24003.748547   6054.127636
PE11  21992.978613 -17248.191006   9704.388703   2967.345834
PE12  18435.536524   1325.796500  23114.361325   5794.491406
PE13 -21951.417338  17191.507720  -9951.028485    401.005836
PE14 -19334.953118 -12139.279230 -23049.433286  -1021.660751
PE15 -18503.543671   -966.714174 -23080.978847    866.291786
PE18  12977.464197  12084.658525  15548.163339  -1121.074545
PE19  11278.747324  27342.743168  -1162.008068  -2435.004667
PE21  -6203.353085  15511.541056 -24439.865872   -600.153160
PE24  24924.046747  -5920.239942  14829.521902   5444.178231
PE25   6343.418987 -15477.261720  24422.767432   -510.934578
PE26 -12324.477691  25234.323783   9362.371439   3164.104738
PE27 -24731.129183   6179.956691 -15043.622466    215.343890
PE30 -28526.633769  -7088.291682   3444.029426   3889.669766
PE31  28650.889702   6732.155220  -3135.842245   -472.618317
PE33   4173.898122  18584.392793  22665.295481   -467.037651
PE36  12513.335351 -25256.207951  -9020.156456    557.300163
PG01  10276.435091 -19404.660134 -14914.733225   -383.276453
PG02 -21996.096637  13866.916090  -4622.426506   -459.481599
PG03   -251.375396 -16194.075287 -21126.700283   -182.891373
PG04    605.914877 -26339.831198  -3215.014596    -92.245706
PG05 -19690.187003   4935.590280  17094.767227    -13.099606
PG06 -21913.276891   3655.458005 -14535.440580   -275.450638
PG07  -8092.275230 -13248.215818  21841.648887   -286.194396
PG08   7359.204250 -21175.202323  14053.858474    -34.763058
PG09  -8049.769460 -24149.049958   7503.855925   -221.526094
PG10  23997.082782  11646.636307   1002.545847   -347.686704
PG11  11564.630072 -24084.545191  -1311.389064   -271.089522
PG12  -1498.282939  15743.020256 -21601.480302    115.355995
PG13 -12924.216118  14340.590025  18082.745623     11.775392
PG14  15058.439704   1503.606925 -21486.468730    -11.465540
PG15  -5336.968063  22235.018839  12875.076305   -229.704439
PG16  18702.572982  -3659.090957  18471.280485   -160.838184
PG17 -13283.830822 -11880.822463 -19289.582971    268.255536
PG18   6919.739342  13551.552110  21760.762585    196.597500
PG19 -14768.416994  -3125.232955 -22156.394313   -155.835966
PG20  18450.307339  14934.194323  12057.050279    527.656857
PG21  11209.582051  11122.440893  22122.572310      1.475298
PG22   9596.920591 -13043.598166 -20814.672209   -781.527846
PG23 -10047.662118 -22374.074993  10093.509666   -112.395186
PG24 -10623.371974  20640.133794 -12764.374118    -13.312970
PG25   9422.910350  17786.043297 -17701.743065      5.896427
PG26  24811.698105   3124.766132   9233.858297    210.583200
PG27  12615.811640 -11270.165113  20242.174739   -299.619528
PG28 -22989.302878 -13120.569077    -97.289645    715.533976
PG29   3758.148079  25853.737875   4666.606131   -109.507587
PG30 -17658.932896  -5211.123033  19255.546800   -224.880641
PG31  22959.278846  -4359.342321 -13077.496009    -43.874342
PG32  14845.256647  10251.982707 -19458.314060    284.886803
PJ01 -25618.336890  22281.695620  30074.259953   -300.515890
PJ02 -32906.939221  16447.928662 -16114.095988     -0.163221
PJ03 -21518.841975  30924.093212 -14374.492684     -3.207893
PJ07 -25397.288677  33660.367054     26.952377      0.010353
PR01  14552.736914  20894.030324   1373.869708     61.863407
PR02  16183.303405   8379.606406 -17827.892700    427.760197
PR03   7527.632254  -8259.096216 -22879.721136     15.395303
PR04  -5515.228904 -19918.835686 -14916.759357     49.917172
PR05 -15248.075454 -20381.151149   1524.667058     50.856027
PR07  -7108.016039   8855.378925  22885.797065    -36.752816
PR08   5364.085161  19980.806814  14989.757078    -52.351960
PR09 -25425.649497   2484.408928     41.104653    133.766510
PR11  -2515.985049  11308.063463 -22717.367527    -24.344702
PR12  15356.033050   7527.571702 -18909.052301    132.578060
PR13  25176.393594   -733.551032  -4037.342365    -38.958630
PR14  20073.413907  -8327.273508  13351.821596     51.456054
PR15   3494.451378 -11149.949564  22692.139145    106.499771
PR16 -15889.430219  -7188.175525  18539.791262     -3.679187
PR17  13962.118785 -18559.863017  10590.026496    326.608478
PR18   7836.789113 -23395.798153  -6342.203699     36.107245
PR19  -1759.965466 -16134.856026 -19680.893050    -94.337564
PR20 -12279.104281   2424.593337 -22231.331641   -412.256391
PR21 -13799.444893  19098.657912  -9749.004542   -125.987597
PR22  -6613.420607  23075.500669   8812.139769     -2.286413
PR23   6200.949463  10387.728420  22446.670833    306.942137
PR24  12901.224249  -3002.407055  21813.429822     -0.616527
PR26 -10414.322650  -2254.596497 -23165.468403   -395.324257
EOF
